1427252608
KPPO 250255Z AUTO 12012KT 10SM OVC090 03/M03 A3007 RMK AO2 T00281027
120
12